start=new Date('2023-06-30T00:00:00.000Z').valueOf();
sats=[{"EPOCH":"2023-06-28T23:36:36.400032","TLE_LINE1":"1 53907U 22119X   23179.98375463  .00000270  00000-0  35043-4 0  9994","REF_FRAME":"TEME","CENTER_NAME":"EARTH","COUNTRY_CODE":"US","LAUNCH_DATE":"2022-09-24","EPHEMERIS_TYPE":"0","RA_OF_ASC_NODE":"64.1992","ELEMENT_SET_NO":"999","OBJECT_ID":"2022-119X","MEAN_MOTION":"15.08833745","DECAY_DATE":null,"SITE":"AFETR","TLE_LINE2":"2 53907  53.2171  64.1992 0001129  90.7696 269.3426 15.08833745 42615","MEAN_ELEMENT_THEORY":"SGP4","RCS_SIZE":"LARGE","OBJECT_NAME":"STARLINK-5063","MEAN_ANOMALY":"269.3426","PERIAPSIS":"538.983","ARG_OF_PERICENTER":"90.7696","OBJECT_TYPE":"PAYLOAD","TIME_SYSTEM":"UTC","PERIOD":"95.438","FILE":"3945315","MEAN_MOTION_DDOT":"0.0000000000000","APOAPSIS":"540.546","NORAD_CAT_ID":"53907","REV_AT_EPOCH":"4261","ECCENTRICITY":"0.00011290","INCLINATION":"53.2171","MEAN_MOTION_DOT":"0.00000270","SEMIMAJOR_AXIS":"6917.900","GP_ID":"234614282","BSTAR":"0.00003504300000","CLASSIFICATION_TYPE":"U"},{"SEMIMAJOR_AXIS":"6917.882","INCLINATION":"53.2166","MEAN_MOTION_DOT":"0.00001153","ECCENTRICITY":"0.00011500","REV_AT_EPOCH":"4274","NORAD_CAT_ID":"53908","APOAPSIS":"540.543","CLASSIFICATION_TYPE":"U","BSTAR":"0.00009052300000","GP_ID":"234619890","PERIOD":"95.438","OBJECT_TYPE":"PAYLOAD","TIME_SYSTEM":"UTC","ARG_OF_PERICENTER":"94.4060","MEAN_MOTION_DDOT":"0.0000000000000","FILE":"3945529","DECAY_DATE":null,"MEAN_MOTION":"15.08839320","MEAN_ANOMALY":"265.7064","PERIAPSIS":"538.952","OBJECT_NAME":"STARLINK-5057","RCS_SIZE":"LARGE","MEAN_ELEMENT_THEORY":"SGP4","TLE_LINE2":"2 53908  53.2166  54.8394 0001150  94.4060 265.7064 15.08839320 42749","SITE":"AFETR","CENTER_NAME":"EARTH","REF_FRAME":"TEME","TLE_LINE1":"1 53908U 22119Y   23179.97002125  .00001153  00000-0  90523-4 0  9991","EPOCH":"2023-06-28T23:16:49.836000","ELEMENT_SET_NO":"999","OBJECT_ID":"2022-119Y","LAUNCH_DATE":"2022-09-24","EPHEMERIS_TYPE":"0","RA_OF_ASC_NODE":"54.8394","COUNTRY_CODE":"US"},{"CENTER_NAME":"EARTH","REF_FRAME":"TEME","TLE_LINE1":"1 53909U 22119Z   23179.91483696  .00000069  00000-0  22423-4 0  9991","EPOCH":"2023-06-28T21:57:21.913344","OBJECT_ID":"2022-119Z","ELEMENT_SET_NO":"999","EPHEMERIS_TYPE":"0","LAUNCH_DATE":"2022-09-24","RA_OF_ASC_NODE":"55.2065","COUNTRY_CODE":"US","DECAY_DATE":null,"MEAN_MOTION":"15.08834334","MEAN_ANOMALY":"260.8093","PERIAPSIS":"538.898","OBJECT_NAME":"STARLINK-4796","RCS_SIZE":"LARGE","MEAN_ELEMENT_THEORY":"SGP4","SITE":"AFETR","TLE_LINE2":"2 53909  53.2171  55.2065 0001250  99.3041 260.8093 15.08834334 42737","PERIOD":"95.438","TIME_SYSTEM":"UTC","OBJECT_TYPE":"PAYLOAD","ARG_OF_PERICENTER":"99.3041","MEAN_MOTION_DDOT":"0.0000000000000","FILE":"3945321","SEMIMAJOR_AXIS":"6917.898","INCLINATION":"53.2171","MEAN_MOTION_DOT":"0.00000069","ECCENTRICITY":"0.00012500","REV_AT_EPOCH":"4273","NORAD_CAT_ID":"53909","APOAPSIS":"540.627","CLASSIFICATION_TYPE":"U","BSTAR":"0.00002242300000","GP_ID":"234614841"},{"OBJECT_NAME":"STARLINK-5056","MEAN_ANOMALY":"267.7493","PERIAPSIS":"538.866","MEAN_ELEMENT_THEORY":"SGP4","RCS_SIZE":"LARGE","TLE_LINE2":"2 53910  53.2176  51.2250 0001318  92.3650 267.7493 15.08829351 42867","SITE":"AFETR","MEAN_MOTION":"15.08829351","DECAY_DATE":null,"ELEMENT_SET_NO":"999","OBJECT_ID":"2022-119AA","EPHEMERIS_TYPE":"0","LAUNCH_DATE":"2022-09-24","RA_OF_ASC_NODE":"51.2250","COUNTRY_CODE":"US","CENTER_NAME":"EARTH","REF_FRAME":"TEME","EPOCH":"2023-06-29T18:10:51.187296","TLE_LINE1":"1 53910U 22119AA  23180.75753689  .00002091  00000-0  14948-3 0  9998","CLASSIFICATION_TYPE":"U","BSTAR":"0.00014948000000","GP_ID":"234626888","SEMIMAJOR_AXIS":"6917.913","ECCENTRICITY":"0.00013180","INCLINATION":"53.2176","MEAN_MOTION_DOT":"0.00002091","NORAD_CAT_ID":"53910","REV_AT_EPOCH":"4286","APOAPSIS":"540.690","FILE":"3945848","MEAN_MOTION_DDOT":"0.0000000000000","PERIOD":"95.438","OBJECT_TYPE":"PAYLOAD","TIME_SYSTEM":"UTC","ARG_OF_PERICENTER":"92.3650"},{"TLE_LINE1":"1 53911U 22119AB  23180.03994661  .00001725  00000-0  12642-3 0  9999","EPOCH":"2023-06-29T00:57:31.387104","REF_FRAME":"TEME","CENTER_NAME":"EARTH","COUNTRY_CODE":"US","RA_OF_ASC_NODE":"54.5664","LAUNCH_DATE":"2022-09-24","EPHEMERIS_TYPE":"0","ELEMENT_SET_NO":"999","OBJECT_ID":"2022-119AB","DECAY_DATE":null,"MEAN_MOTION":"15.08839247","SITE":"AFETR","TLE_LINE2":"2 53911  53.2176  54.5664 0001098  85.3531 274.7586 15.08839247 42752","RCS_SIZE":"LARGE","MEAN_ELEMENT_THEORY":"SGP4","MEAN_ANOMALY":"274.7586","PERIAPSIS":"538.988","OBJECT_NAME":"STARLINK-5048","ARG_OF_PERICENTER":"85.3531","OBJECT_TYPE":"PAYLOAD","TIME_SYSTEM":"UTC","PERIOD":"95.438","MEAN_MOTION_DDOT":"0.0000000000000","FILE":"3945317","APOAPSIS":"540.507","REV_AT_EPOCH":"4275","NORAD_CAT_ID":"53911","INCLINATION":"53.2176","MEAN_MOTION_DOT":"0.00001725","ECCENTRICITY":"0.00010980","SEMIMAJOR_AXIS":"6917.883","GP_ID":"234614304","BSTAR":"0.00012642000000","CLASSIFICATION_TYPE":"U"},{"BSTAR":"0.00001800300000","GP_ID":"234618625","CLASSIFICATION_TYPE":"U","NORAD_CAT_ID":"53912","REV_AT_EPOCH":"4274","APOAPSIS":"541.299","SEMIMAJOR_AXIS":"6917.897","ECCENTRICITY":"0.00022220","INCLINATION":"53.2180","MEAN_MOTION_DOT":"-0.00000002","FILE":"3945493","MEAN_MOTION_DDOT":"0.0000000000000","TIME_SYSTEM":"UTC","OBJECT_TYPE":"PAYLOAD","ARG_OF_PERICENTER":"112.5514","PERIOD":"95.438","MEAN_ELEMENT_THEORY":"SGP4","RCS_SIZE":"LARGE","SITE":"AFETR","TLE_LINE2":"2 53912  53.2180  54.5522 0002222 112.5514 247.5714 15.08834646 42743","OBJECT_NAME":"STARLINK-5059","MEAN_ANOMALY":"247.5714","PERIAPSIS":"538.225","MEAN_MOTION":"15.08834646","DECAY_DATE":null,"COUNTRY_CODE":"US","OBJECT_ID":"2022-119AC","ELEMENT_SET_NO":"999","LAUNCH_DATE":"2022-09-24","EPHEMERIS_TYPE":"0","RA_OF_ASC_NODE":"54.5522","EPOCH":"2023-06-28T22:07:51.543840","TLE_LINE1":"1 53912U 22119AC  23179.92212435 -.00000002  00000-0  18003-4 0  9994","CENTER_NAME":"EARTH","REF_FRAME":"TEME"},{"REF_FRAME":"TEME","CENTER_NAME":"EARTH","TLE_LINE1":"1 53913U 22119AD  23179.95528569  .00000017  00000-0  19135-4 0  9998","EPOCH":"2023-06-28T22:55:36.683616","EPHEMERIS_TYPE":"0","LAUNCH_DATE":"2022-09-24","RA_OF_ASC_NODE":"54.7488","ELEMENT_SET_NO":"999","OBJECT_ID":"2022-119AD","COUNTRY_CODE":"US","DECAY_DATE":null,"MEAN_MOTION":"15.08835370","MEAN_ANOMALY":"276.1830","PERIAPSIS":"538.980","OBJECT_NAME":"STARLINK-5053","SITE":"AFETR","TLE_LINE2":"2 53913  53.2178  54.7488 0001127  83.9291 276.1830 15.08835370 42742","RCS_SIZE":"LARGE","MEAN_ELEMENT_THEORY":"SGP4","PERIOD":"95.438","ARG_OF_PERICENTER":"83.9291","OBJECT_TYPE":"PAYLOAD","TIME_SYSTEM":"UTC","MEAN_MOTION_DDOT":"0.0000000000000","FILE":"3945322","MEAN_MOTION_DOT":"0.00000017","INCLINATION":"53.2178","ECCENTRICITY":"0.00011270","SEMIMAJOR_AXIS":"6917.895","APOAPSIS":"540.539","REV_AT_EPOCH":"4274","NORAD_CAT_ID":"53913","CLASSIFICATION_TYPE":"U","GP_ID":"234614858","BSTAR":"0.00001913500000"},{"CLASSIFICATION_TYPE":"U","BSTAR":"0.00007174200000","GP_ID":"234614852","SEMIMAJOR_AXIS":"6917.881","INCLINATION":"53.2172","MEAN_MOTION_DOT":"0.00000854","ECCENTRICITY":"0.00011230","REV_AT_EPOCH":"4276","NORAD_CAT_ID":"53914","APOAPSIS":"540.523","MEAN_MOTION_DDOT":"0.0000000000000","FILE":"3945322","PERIOD":"95.438","OBJECT_TYPE":"PAYLOAD","TIME_SYSTEM":"UTC","ARG_OF_PERICENTER":"85.9715","PERIAPSIS":"538.969","MEAN_ANOMALY":"274.1405","OBJECT_NAME":"STARLINK-5040","RCS_SIZE":"LARGE","MEAN_ELEMENT_THEORY":"SGP4","TLE_LINE2":"2 53914  53.2172  54.1304 0001123  85.9715 274.1405 15.08839798 42763","SITE":"AFETR","DECAY_DATE":null,"MEAN_MOTION":"15.08839798","ELEMENT_SET_NO":"999","OBJECT_ID":"2022-119AE","LAUNCH_DATE":"2022-09-24","EPHEMERIS_TYPE":"0","RA_OF_ASC_NODE":"54.1304","COUNTRY_CODE":"US","CENTER_NAME":"EARTH","REF_FRAME":"TEME","TLE_LINE1":"1 53914U 22119AE  23180.08407712  .00000854  00000-0  71742-4 0  9992","EPOCH":"2023-06-29T02:01:04.263168"},{"PERIAPSIS":"538.914","MEAN_ANOMALY":"278.5440","OBJECT_NAME":"STARLINK-5017","TLE_LINE2":"2 53915  53.2168  54.8150 0001208  81.5689 278.5440 15.08838637 42747","SITE":"AFETR","RCS_SIZE":"LARGE","MEAN_ELEMENT_THEORY":"SGP4","DECAY_DATE":null,"MEAN_MOTION":"15.08838637","EPHEMERIS_TYPE":"0","LAUNCH_DATE":"2022-09-24","RA_OF_ASC_NODE":"54.8150","ELEMENT_SET_NO":"999","OBJECT_ID":"2022-119AF","COUNTRY_CODE":"US","REF_FRAME":"TEME","CENTER_NAME":"EARTH","TLE_LINE1":"1 53915U 22119AF  23179.96633810  .00001650  00000-0  12174-3 0  9996","EPOCH":"2023-06-28T23:11:31.611840","CLASSIFICATION_TYPE":"U","GP_ID":"234614362","BSTAR":"0.00012174000000","MEAN_MOTION_DOT":"0.00001650","INCLINATION":"53.2168","ECCENTRICITY":"0.00012080","SEMIMAJOR_AXIS":"6917.885","APOAPSIS":"540.585","REV_AT_EPOCH":"4274","NORAD_CAT_ID":"53915","MEAN_MOTION_DDOT":"0.0000000000000","FILE":"3945323","PERIOD":"95.438","ARG_OF_PERICENTER":"81.5689","TIME_SYSTEM":"UTC","OBJECT_TYPE":"PAYLOAD"},{"COUNTRY_CODE":"US","LAUNCH_DATE":"2022-09-24","RA_OF_ASC_NODE":"34.5925","EPHEMERIS_TYPE":"0","ELEMENT_SET_NO":"999","OBJECT_ID":"2022-119AG","TLE_LINE1":"1 53916U 22119AG  23179.91660304  .00000951  00000-0  77839-4 0  9993","EPOCH":"2023-06-28T21:59:54.502656","REF_FRAME":"TEME","CENTER_NAME":"EARTH","SITE":"AFETR","TLE_LINE2":"2 53916  53.2180  34.5925 0001149  83.9760 276.1363 15.08838612 43020","RCS_SIZE":"LARGE","MEAN_ELEMENT_THEORY":"SGP4","PERIAPSIS":"538.955","MEAN_ANOMALY":"276.1363","OBJECT_NAME":"STARLINK-5051","DECAY_DATE":null,"MEAN_MOTION":"15.08838612","MEAN_MOTION_DDOT":"0.0000000000000","FILE":"3945323","ARG_OF_PERICENTER":"83.9760","OBJECT_TYPE":"PAYLOAD","TIME_SYSTEM":"UTC","PERIOD":"95.438","GP_ID":"234614368","BSTAR":"0.00007783900000","CLASSIFICATION_TYPE":"U","APOAPSIS":"540.544","REV_AT_EPOCH":"4302","NORAD_CAT_ID":"53916","INCLINATION":"53.2180","MEAN_MOTION_DOT":"0.00000951","ECCENTRICITY":"0.00011490","SEMIMAJOR_AXIS":"6917.885"}];
